{"type":"FeatureCollection","features":[{"type":"Feature","properties":{"NAME_1":"Andhra Pradesh"},"geometry":{"type":"Polygon","coordinates":[[[76.7600837,14.989595],[76.7879212,15.0094689],[76.773676,15.0643614],[76.8003559,15.0961788],[76.8661022,15.0600127],[76.8772817,15.0306494],[76.9183838,15.0358199],[76.9853103,15.0155518],[77.004118,15.0337994],[77.0495868,15.0330844],[77.0442652,15.0098523],[77.0719671,15.0045672],[77.0847773,15.0307012],[77.112844,15.0339341],[77.1300101,15.1004038],[77.1562743,15.1229839],[77.1571653,15.1403978],[77.1344036,15.1482593],[77.1627706,15.1573517],[77.166118,15.1885818],[77.1474927,15.2238035],[77.1250051,15.2269092],[77.167148,15.2683552],[77.1476,15.2727643],[77.151677,15.292242],[77.1183103,15.2948085],[77.1133536,15.33382],[77.0621127,15.3279015],[77.0647734,15.3442287],[77.0404565,15.3642842],[77.0310688,15.4330801],[76.9746861,15.4979555],[76.975708,15.510651],[77.0297813,15.5021529],[77.0304036,15.6345056],[77.0831895,15.6589803],[77.1213841,15.6309927],[77.1289372,15.6658501],[77.0785761,15.6952273],[77.079606,15.7274713],[77.0460892,15.7403385],[77.0675039,15.7900649],[77.0651865,15.8278885],[77.0251855,15.8375092],[77.0696711,15.9071669],[77.1023941,15.9287716],[77.2500014,15.9649394],[77.611796,15.9188218],[77.6822233,15.8836715],[77.7248919,15.8960748],[77.8039849,15.8745078],[77.8571233,15.8836002],[77.8895497,15.9067314],[78.0088842,15.861969],[78.0320048,15.9077034],[78.0837393,15.8413067],[78.1338858,15.8366517],[78.1359029,15.8551265],[78.1764582,15.8582973],[78.1851039,15.9115199],[78.2521605,15.9364473],[78.2596063,16.025562],[78.3147955,16.012816],[78.3279705,16.0378533],[78.4073853,16.0749601],[78.5506987,16.0427199],[78.6022519,16.0845923],[78.6277932,16.0878311],[78.6817851,16.0345197],[78.7364389,16.0098168],[78.7851762,16.0219636],[78.8401494,16.0789729],[78.8344268,16.1457687],[78.8727465,16.1441848],[78.8955737,16.0859626],[78.9221104,16.1046895],[78.9060445,16.184173],[78.9880256,16.2124676],[79.011104,16.2416867],[79.0992728,16.223948],[79.122238,16.2327176],[79.1595005,16.2100902],[79.2174322,16.2284212],[79.2342633,16.3349961],[79.2107084,16.356873],[79.2110742,16.4445018],[79.2335104,16.4601022],[79.2147126,16.4877968],[79.2587169,16.5672367],[79.4175015,16.5800395],[79.4477774,16.6201408],[79.5408146,16.6317741],[79.5984295,16.673424],[79.6350963,16.6610339],[79.6805736,16.6943961],[79.7243002,16.6916908],[79.7760986,16.7315085],[79.8165966,16.6922672],[79.8504113,16.705965],[79.8783213,16.6969711],[79.908454,16.6347634],[79.950661,16.6361465],[79.9976934,16.7021807],[80.0526979,16.7415733],[80.0694334,16.796507],[80.0731101,16.8173975],[80.0485325,16.8330298],[80.0466656,16.8535464],[79.9989867,16.8653954],[80.0172901,16.9151753],[80.0399923,16.9191477],[80.0547938,16.9713277],[80.0912702,16.9685993],[80.0956947,16.9906352],[80.1403069,16.990349],[80.1872671,17.0199484],[80.1965153,17.0440964],[80.2101087,17.0112794],[80.2922702,16.9982392],[80.3166622,16.9486865],[80.3218133,16.8788132],[80.3739381,16.8525812],[80.381062,16.8171941],[80.4079807,16.8488744],[80.3785515,16.8518214],[80.3842056,16.865344],[80.4643178,16.819813],[80.4646182,16.7953178],[80.5706191,16.7678712],[80.6129229,16.7935511],[80.5629051,16.8335741],[80.5682587,16.8697076],[80.5955113,16.8847329],[80.5870986,16.9034424],[80.6024663,16.918919],[80.5353856,16.9613709],[80.5261266,16.9479578],[80.4991007,16.9561987],[80.4936719,16.9279236],[80.4498982,16.9550083],[80.3633916,16.9760657],[80.4070258,17.0158242],[80.3857043,17.0667892],[80.4093861,17.0917164],[80.4385471,17.0378186],[80.464822,17.0302891],[80.4713452,17.0506817],[80.5055165,17.0689079],[80.5139172,17.1222636],[80.5628943,17.1332651],[80.5799639,17.1533901],[80.6705689,17.1011713],[80.6540251,17.0694002],[80.7392205,17.0788166],[80.8450627,17.0401677],[80.8770341,17.070514],[80.8678937,17.1235965],[80.8794594,17.1608531],[80.9239304,17.1578289],[80.9194884,17.2204277],[81.0311544,17.1906611],[81.0550386,17.2248267],[81.079457,17.2154636],[81.1706681,17.2313577],[81.1864523,17.2493396],[81.1766803,17.2876783],[81.189512,17.3235806],[81.2736046,17.3173226],[81.2885713,17.3284558],[81.3226246,17.3745897],[81.3137948,17.4076187],[81.2052727,17.4495466],[81.2025475,17.4340602],[81.1824846,17.440652],[81.1761224,17.4640082],[81.1482596,17.4632918],[81.1596965,17.4842505],[81.1423373,17.4884563],[81.1275744,17.5262221],[81.0986924,17.5043269],[81.0198354,17.520104],[80.9674358,17.5988257],[80.8556199,17.6030288],[80.8569288,17.6304234],[80.8889222,17.6321617],[80.91092,17.6545188],[80.9062489,17.6802914],[80.8854945,17.6837168],[80.9000077,17.7520534],[80.9729629,17.7794715],[80.9914634,17.7501831],[81.05846,17.733287],[81.1045074,17.7720132],[81.0889132,17.8108089],[81.159383,17.852734],[81.2539375,17.8121469],[81.3244056,17.8152968],[81.3874911,17.7956842],[81.397102,17.8196905],[81.4158153,17.8132948],[81.4331531,17.8315676],[81.473515,17.8377465],[81.4921402,17.8122733],[81.5772628,17.8375219],[81.6182899,17.823223],[81.6664409,17.8849043],[81.7021464,17.9004234],[81.7102145,17.8731416],[81.7245483,17.8764908],[81.8111514,17.9521166],[81.9629645,17.9990704],[82.0100426,18.0305667],[82.0080685,18.0572326],[82.0325517,18.0687587],[82.0650816,18.0554985],[82.077291,18.0747764],[82.1334886,18.0597011],[82.1376085,18.0436451],[82.1690225,18.050949],[82.1799445,18.0191197],[82.2645092,17.9961623],[82.2728777,18.0561105],[82.3010248,18.0698704],[82.3080414,18.0449764],[82.3440742,18.057763],[82.3394608,18.148421],[82.362957,18.1347386],[82.3723554,18.1470752],[82.3531508,18.1717866],[82.3158359,18.1840594],[82.3114586,18.2043424],[82.3371005,18.223502],[82.3247623,18.2319805],[82.3443961,18.2802346],[82.3768186,18.2804588],[82.3926973,18.2978783],[82.3893392,18.3284041],[82.3573565,18.3160396],[82.3393535,18.3259496],[82.3855519,18.3674168],[82.3657036,18.422209],[82.4821114,18.5484435],[82.5048566,18.5136533],[82.5323438,18.5112523],[82.5342321,18.4776757],[82.519083,18.4662581],[82.5394249,18.4439296],[82.5423217,18.4573637],[82.5617837,18.4476547],[82.5411415,18.4008317],[82.5950002,18.3890222],[82.6209211,18.3599021],[82.6022529,18.3514299],[82.6093339,18.3278033],[82.5820827,18.3150517],[82.5983906,18.3044382],[82.5877261,18.2759763],[82.6373791,18.2366679],[82.6520669,18.2495475],[82.6423359,18.3017287],[82.6671409,18.2983265],[82.7750945,18.3401363],[82.7992773,18.407347],[82.783184,18.4293342],[82.8037834,18.4494866],[82.8514623,18.4207025],[82.8949785,18.4241226],[82.8961801,18.3809994],[82.941842,18.360676],[82.9691362,18.359169],[83.0208385,18.3914961],[83.0567693,18.381203],[83.0771327,18.4033157],[83.0577457,18.419145],[83.0672621,18.430006],[83.0426287,18.4243669],[83.0211282,18.4558575],[83.0951786,18.5461447],[83.0453217,18.5438866],[83.0299044,18.5735348],[83.0525958,18.6010323],[83.0242342,18.5894145],[83.0006468,18.6078654],[83.0134356,18.6462858],[83.0580246,18.6654064],[83.0728304,18.7055719],[83.1383514,18.785082],[83.206501,18.7513867],[83.2121444,18.7303149],[83.2245684,18.7751377],[83.2713354,18.7644715],[83.2847357,18.7980931],[83.3298397,18.8065939],[83.3670366,18.8436492],[83.3784628,18.8306518],[83.4059071,18.8428166],[83.4147048,18.8746967],[83.3818531,18.8917105],[83.3923888,18.9087631],[83.3597302,18.9147311],[83.3523488,18.9434923],[83.3699655,18.9419093],[83.3706736,18.9262605],[83.387475,18.932918],[83.3517909,18.9673987],[83.348465,18.9264128],[83.3262241,18.9323193],[83.3389485,18.9537108],[83.3106887,18.9989609],[83.3388948,18.9969725],[83.3428323,19.0180211],[83.3676052,19.0163068],[83.3725834,19.0022577],[83.4005964,19.0094498],[83.4616864,18.9547458],[83.4677696,18.9910785],[83.4500026,19.0098251],[83.4826612,19.0151201],[83.4623837,19.0637505],[83.478359,19.0793457],[83.4679842,19.0931348],[83.4829402,19.0927699],[83.5006535,19.0605461],[83.5115754,19.0702504],[83.5192358,19.0392393],[83.4964049,19.0356693],[83.5008037,19.0208206],[83.5366702,19.0095411],[83.5575378,19.0560842],[83.54918,19.0805321],[83.5602522,19.0870718],[83.5638571,19.0573619],[83.5844618,19.0574735],[83.5855239,19.0864128],[83.6104631,19.0964299],[83.598361,19.1306537],[83.633809,19.1593572],[83.6639678,19.0762532],[83.7003708,19.0251414],[83.7299609,19.0217537],[83.708514,19.0061328],[83.7332117,18.9880147],[83.7539184,18.9249615],[83.7879181,18.9158476],[83.7460971,18.9897799],[83.794719,19.0180182],[83.8224448,18.961574],[83.8246115,18.9178897],[83.8479486,18.9125794],[83.8447953,18.8733097],[83.8931894,18.8144849],[83.915602,18.8279608],[83.9500952,18.8051416],[84.0384793,18.8164145],[84.0895378,18.7568016],[84.1379571,18.7616321],[84.1635668,18.7892363],[84.1901851,18.7777482],[84.1955656,18.7916181],[84.236834,18.7985806],[84.2619502,18.7832841],[84.2886543,18.8046744],[84.3213344,18.7865447],[84.3445516,18.8018205],[84.3310439,18.8179581],[84.3637884,18.8370491],[84.3369341,18.8901472],[84.3736267,18.8608895],[84.3836474,18.8739556],[84.3606233,18.8947455],[84.3932712,18.8764022],[84.3987429,18.8896295],[84.3784869,18.9033836],[84.4190204,18.8973847],[84.4181192,18.9183544],[84.42873,18.909636],[84.4385791,18.9210135],[84.425962,18.9527164],[84.4524729,18.976175],[84.421134,19.0221594],[84.4789517,18.9884509],[84.4826102,19.0165909],[84.5163846,19.0483464],[84.5830321,19.0731707],[84.5774102,19.0403955],[84.5942223,19.0222],[84.6183515,19.0658699],[84.6608591,19.0632435],[84.6709013,19.0759591],[84.6594643,19.0933072],[84.6274495,19.0850745],[84.5959496,19.1322957],[84.667452,19.1298883],[84.6709549,19.1659141],[84.7102975,19.1593977],[84.7028625,19.1178307],[84.7658033,19.0788084],[84.5952818,18.8791152],[84.552176,18.7916486],[84.4640654,18.7089863],[84.4397619,18.6610534],[84.3670231,18.5925974],[84.3552428,18.5563872],[84.1538143,18.3770693],[84.1239828,18.311255],[83.9473352,18.212116],[83.7355721,18.1207263],[83.570399,18.0113808],[83.5439363,17.9635347],[83.4585321,17.9040655],[83.4148577,17.8522229],[83.4163249,17.8220892],[83.354677,17.757073],[83.3455387,17.7258604],[83.3003897,17.6965396],[83.3062202,17.68819],[83.2835542,17.6893808],[83.2834482,17.7118055],[83.2799815,17.6951336],[83.263844,17.7120814],[83.2686639,17.6949847],[83.2811737,17.6877479],[83.2980703,17.6861635],[83.295262,17.6764156],[83.2313517,17.6274786],[83.2383066,17.615382],[83.2478224,17.6236991],[83.2130925,17.5910724],[83.0203262,17.5070076],[82.9914361,17.4722837],[82.5824636,17.2743758],[82.4655461,17.1935515],[82.3311648,17.0718514],[82.2951239,17.02576],[82.2700855,16.9420206],[82.2450285,16.9402372],[82.2708178,16.8771409],[82.3133803,16.850261],[82.3555568,16.8515981],[82.3399678,16.7513623],[82.3669817,16.7293269],[82.3180246,16.6444875],[82.3178637,16.5945904],[82.3010221,16.5723209],[81.9411716,16.3944174],[81.8533534,16.3727785],[81.7226605,16.3103497],[81.6814667,16.3329762],[81.484665,16.3521771],[81.3917585,16.3422907],[81.304536,16.3031606],[81.2189333,16.2255944],[81.2186672,16.2126527],[81.2400744,16.2241317],[81.2131984,16.195078],[81.2082616,16.1409421],[81.1371181,16.0169952],[81.1389754,15.9762244],[81.009009,15.8340621],[81.0146964,15.7689306],[80.9397282,15.720266],[80.8227682,15.7175982],[80.7858503,15.7589254],[80.7687002,15.8070936],[80.7716491,15.8167495],[80.8139403,15.7398911],[80.7954851,15.8087954],[80.8094566,15.8140538],[80.8092713,15.8375497],[80.7713939,15.8634133],[80.6970402,15.8798165],[80.5953048,15.8666604],[80.4780867,15.8264352],[80.3701258,15.7677388],[80.2939224,15.6996686],[80.2419541,15.6115676],[80.2005628,15.4645922],[80.1099844,15.3442436],[80.0845948,15.2692039],[80.0847101,15.189959],[80.0480068,15.0820842],[80.0987649,14.7773412],[80.1941335,14.5883078],[80.1279044,14.1440612],[80.1509982,14.0299573],[80.2507549,13.7897328],[80.2342433,13.6563969],[80.2679813,13.5639111],[80.2417803,13.4725393],[80.1382684,13.5045474],[80.0774789,13.4893785],[80.0814914,13.5488802],[80.0569975,13.5367077],[80.0018317,13.5464009],[80.000601,13.5256724],[80.0485325,13.512601],[80.0466656,13.493656],[80.0157881,13.4979125],[80.0075698,13.4785073],[79.9723792,13.4689919],[79.973216,13.4295073],[79.9344528,13.4166191],[79.9627125,13.3917592],[79.9381113,13.3557172],[79.9159884,13.359997],[79.8629773,13.317091],[79.8090649,13.3172998],[79.791652,13.2935678],[79.7606671,13.3184796],[79.7559035,13.2944761],[79.7335338,13.2887752],[79.7947311,13.2419298],[79.7755372,13.215245],[79.7525024,13.2064817],[79.7327506,13.2368228],[79.7314954,13.2223786],[79.7025597,13.2223786],[79.7126019,13.2444676],[79.6842885,13.2443318],[79.6783554,13.2618031],[79.6957791,13.2670871],[79.683001,13.2956352],[79.6652984,13.2786675],[79.6424676,13.2902185],[79.6318459,13.2697917],[79.5987368,13.2857993],[79.5804977,13.2573231],[79.5347714,13.2752216],[79.537282,13.3385345],[79.4973492,13.332417],[79.4996452,13.3478045],[79.4564544,13.3384904],[79.435633,13.3517293],[79.381907,13.3077572],[79.4188142,13.289694],[79.4456792,13.3004485],[79.43362,13.2748875],[79.4084501,13.2654058],[79.4185781,13.242995],[79.4378793,13.2429637],[79.4311094,13.2297732],[79.4531035,13.2384834],[79.4387054,13.1883275],[79.3742251,13.1894348],[79.3877864,13.1773382],[79.3726373,13.1788843],[79.3796754,13.1629218],[79.3562221,13.1645307],[79.3607497,13.1235755],[79.3452787,13.1215066],[79.3412661,13.1369493],[79.3072128,13.1054778],[79.2943167,13.1094903],[79.3127703,13.126104],[79.2840761,13.1227813],[79.2806268,13.1526209],[79.2570877,13.1607906],[79.2451572,13.1384747],[79.2346215,13.1706525],[79.2099237,13.1484628],[79.2329049,13.1392688],[79.2344069,13.1051225],[79.1805267,13.0843273],[79.1921139,13.0672091],[79.1787028,13.0587227],[79.1920709,13.0559636],[79.1802692,13.0495044],[79.1931867,13.0467243],[79.1632747,13.0202378],[79.1146517,13.0393869],[79.0808558,13.0255687],[79.0632069,13.0533193],[78.9952612,13.0865845],[78.9240432,13.0809414],[78.9038408,13.0476231],[78.9371323,13.0304397],[78.8916635,13.0331364],[78.8957812,13.095054],[78.8817286,13.0981631],[78.8708925,13.0821536],[78.8131848,13.0891814],[78.7934732,13.0660595],[78.7514591,13.0548766],[78.7141013,13.0686722],[78.7047672,13.0154712],[78.6562514,13.0311505],[78.6210179,12.9911976],[78.6569166,12.9320615],[78.6337101,12.9316223],[78.5925221,12.7826114],[78.5554647,12.7557621],[78.5616874,12.7095905],[78.5361743,12.6903743],[78.5295868,12.7092975],[78.5444569,12.7105324],[78.4931946,12.7470768],[78.5197806,12.711893],[78.5029471,12.716634],[78.4995917,12.6765657],[78.4678955,12.6758055],[78.4649133,12.6238599],[78.4271049,12.6352714],[78.3726078,12.6268123],[78.3004582,12.6652508],[78.2678556,12.7056757],[78.2105026,12.6846881],[78.2065474,12.7075517],[78.2409303,12.7298647],[78.2313763,12.7621184],[78.2522678,12.8603182],[78.3123708,12.8583517],[78.3136797,12.8761746],[78.3369398,12.8823244],[78.3203745,12.8872818],[78.3234429,12.9019025],[78.3441067,12.9079681],[78.3527326,12.9388792],[78.3896398,12.9064621],[78.3983516,12.9175263],[78.4120845,12.9030529],[78.4449148,12.9120465],[78.4647471,12.8666985],[78.4665549,12.9053118],[78.4275985,12.9330653],[78.4183502,12.9228385],[78.411119,12.9454457],[78.436718,12.9623214],[78.4353661,12.98113],[78.4675419,12.9750139],[78.4622741,13.0433692],[78.5161435,13.0628823],[78.5102105,13.0920186],[78.5385775,13.1056659],[78.5175919,13.1324148],[78.5457659,13.1428629],[78.5500359,13.1636531],[78.579905,13.167414],[78.5761607,13.186583],[78.5501218,13.1894243],[78.5789931,13.2130934],[78.5670841,13.2252717],[78.587265,13.2803904],[78.5693908,13.3090936],[78.5319686,13.2668678],[78.4794617,13.3012629],[78.4834099,13.321194],[78.4441638,13.3082374],[78.4281134,13.3312268],[78.4011263,13.3153679],[78.378278,13.3373235],[78.408426,13.3457376],[78.3657575,13.3585982],[78.3817649,13.3971969],[78.3753598,13.5090437],[78.4019887,13.5879174],[78.2585158,13.5827199],[78.2371182,13.5988452],[78.193121,13.5643932],[78.204123,13.6283986],[78.1684492,13.6326385],[78.1562752,13.6584936],[78.0872938,13.6434484],[78.0694699,13.6976523],[78.1134152,13.692503],[78.1210756,13.7154762],[78.0917859,13.7423032],[78.1265902,13.7865705],[78.1137156,13.807409],[78.1235862,13.8451845],[78.114869,13.8628461],[78.0814862,13.8613305],[78.0789757,13.8812041],[78.0489564,13.8962228],[78.0459738,13.8621638],[78.0008912,13.8732257],[77.9762149,13.8296208],[77.9529547,13.8271831],[77.9493928,13.8872659],[77.9866862,13.9029299],[77.9874372,13.9555797],[77.9720521,13.960161],[77.9267335,13.9053877],[77.8958022,13.9202902],[77.895813,13.9410231],[77.8265476,13.9447716],[77.8135443,13.9152395],[77.8370404,13.8699343],[77.7822697,13.8441116],[77.7815723,13.8182026],[77.7193773,13.8002303],[77.717371,13.7410318],[77.7033806,13.7697941],[77.6714086,13.760478],[77.6801741,13.786758],[77.6211655,13.7684602],[77.6189983,13.7553091],[77.642312,13.747118],[77.6278818,13.734591],[77.5997937,13.7506196],[77.5604081,13.7224803],[77.5473189,13.7531207],[77.5280285,13.7539231],[77.5249815,13.6911583],[77.5143599,13.7130893],[77.4848985,13.7147883],[77.4918508,13.6900638],[77.4553004,13.6822469],[77.4645352,13.8080758],[77.4226713,13.7989279],[77.4324936,13.8432365],[77.3828029,13.8392675],[77.3627186,13.8542264],[77.3256397,13.833017],[77.3110699,13.8665178],[77.288475,13.8474346],[77.2568464,13.8465804],[77.2484135,13.9013052],[77.2358393,13.9040963],[77.2199392,13.8676844],[77.2116887,13.8857869],[77.2004342,13.8631013],[77.1814441,13.8698718],[77.1847272,13.925143],[77.1620572,13.9067624],[77.1684623,13.8645179],[77.1281862,13.8565181],[77.1686768,13.8295375],[77.1574759,13.8060129],[77.178483,13.7830486],[77.1729469,13.7620828],[77.0904207,13.7672515],[77.0856356,13.7423449],[77.0643496,13.7439602],[77.0434284,13.7777969],[77.0244276,13.7792244],[77.0166278,13.7387598],[76.9986892,13.7453046],[76.9781327,13.8269539],[77.0141559,13.8602332],[77.0229792,13.9026174],[77.0472264,13.9065958],[77.0414972,13.9334528],[76.9938505,13.9625453],[76.999172,13.9904057],[76.9311189,14.0302436],[76.9325781,14.0551192],[76.9717812,14.0583663],[76.9749999,14.0810327],[76.9482035,14.0919407],[76.945796,14.118701],[76.9249177,14.1370543],[76.8860149,14.1383651],[76.8945336,14.1678789],[76.9421482,14.173257],[76.9474911,14.1980754],[76.9613313,14.1815162],[77.0221424,14.177397],[77.0146751,14.1000966],[77.0315623,14.0569301],[77.1268344,14.0471468],[77.1409321,14.0038246],[77.2454631,14.0118922],[77.2700858,14.0344903],[77.2749781,14.0115695],[77.3220992,14.0300562],[77.3363256,13.9959753],[77.3608303,13.9911449],[77.3495865,13.9585159],[77.371602,13.9531641],[77.3477196,13.916031],[77.358427,13.9035443],[77.3976087,13.9065333],[77.3989461,13.8884859],[77.4346447,13.9147605],[77.4119854,13.945917],[77.4350738,13.9473748],[77.4388718,13.9755077],[77.4267268,13.9861895],[77.381494,13.9761949],[77.3902917,14.0166077],[77.332313,14.0306807],[77.340424,14.0601356],[77.3601007,14.062113],[77.4013853,14.1198247],[77.3474192,14.103468],[77.3519897,14.1311031],[77.3788762,14.1359722],[77.393682,14.1742556],[77.5036526,14.1572785],[77.5170421,14.182858],[77.4924409,14.2307637],[77.5038993,14.2636448],[77.4819803,14.2913748],[77.4504161,14.2805827],[77.4460601,14.3173238],[77.3930383,14.3358064],[77.3765588,14.3056596],[77.4197531,14.2116172],[77.3870301,14.1998851],[77.3841548,14.2209566],[77.3593926,14.2343307],[77.3638434,14.2758136],[77.2835398,14.2828909],[77.2866082,14.3402345],[77.2377491,14.3174277],[77.1632266,14.3423342],[77.1356106,14.3367004],[77.1153116,14.2921234],[77.1096253,14.2207278],[77.0812797,14.2141757],[77.054286,14.2451875],[76.9395518,14.2450419],[76.9247675,14.273658],[76.9565409,14.2943119],[76.8849635,14.3473651],[76.8852854,14.3920973],[76.9156694,14.4207154],[76.9425559,14.400307],[76.9447017,14.4508052],[76.9598508,14.450535],[76.9747853,14.4853005],[76.9007134,14.4892634],[76.8680119,14.4739723],[76.8558454,14.5093521],[76.8065142,14.5310592],[76.7819881,14.5964582],[76.7650366,14.602044],[76.7752558,14.6810442],[76.8035531,14.7424559],[76.78231,14.7860863],[76.8366408,14.7908995],[76.8372953,14.8110332],[76.8542683,14.8098404],[76.8455458,14.8896],[76.863817,14.8954581],[76.8672502,14.9695166],[76.8288731,14.9561249],[76.7666888,14.9745434],[76.7600837,14.989595]],[[82.1861281,16.7333847],[82.2627075,16.7054284],[82.2962844,16.7068395],[82.3137136,16.7280681],[82.3057523,16.7483444],[82.2893652,16.7261281],[82.2376469,16.7221697],[82.2169464,16.7334528],[82.2283218,16.7617041],[82.1861281,16.7333847]]]}},{"type":"Feature","properties":{"NAME_1":"Karnataka"},"geometry":{"type":"MultiPolygon","coordinates":[[[[74.0848741,14.9002456],[74.1243481,14.9255241],[74.1614485,14.9124822],[74.1627359,14.9582187],[74.1793012,14.9580529],[74.201188,14.9264572],[74.2359924,14.9663242],[74.2538237,14.9612039],[74.2642608,14.9784624],[74.253416,14.9981835],[74.2967605,15.0409592],[74.2744445,15.0971927],[74.283328,15.1450023],[74.3181629,15.1839554],[74.3010735,15.224937],[74.2507124,15.2590554],[74.2763757,15.2835435],[74.3361139,15.2959831],[74.3168449,15.3301727],[74.3220377,15.3681637],[74.2753028,15.3917494],[74.2780065,15.4410226],[74.2507124,15.4912352],[74.2823624,15.532608],[74.2619991,15.5650223],[74.2448973,15.5670273],[74.2638874,15.615804],[74.2439103,15.6258059],[74.2504549,15.6578336],[74.224019,15.6690937],[74.2050934,15.6509326],[74.1814202,15.6821558],[74.1658044,15.654817],[74.1347122,15.6483808],[74.0887069,15.6710152],[74.1273737,15.6814689],[74.1250991,15.7226175],[74.1613626,15.75083],[74.2014026,15.7568603],[74.2087166,15.7801827],[74.2361559,15.7845789],[74.2321418,15.7538041],[74.2562264,15.7435458],[74.3213441,15.7564801],[74.3242303,15.7718166],[74.3487968,15.7666177],[74.3689277,15.78648],[74.3656438,15.8229851],[74.3827587,15.8478609],[74.3392966,15.8537657],[74.3657578,15.8928272],[74.3901016,15.8539182],[74.4069614,15.8542117],[74.3871784,15.9025217],[74.4320266,15.9533777],[74.4648351,16.0421033],[74.430397,16.0590004],[74.3818835,16.0344575],[74.3616243,16.0540227],[74.3722597,16.0769203],[74.42808,16.111558],[74.4829394,16.0883655],[74.4804531,16.1452732],[74.506578,16.1891636],[74.4967658,16.2319805],[74.4160377,16.2582951],[74.4117356,16.2821292],[74.3865749,16.2758027],[74.3859533,16.2897421],[74.3469059,16.2926378],[74.3550836,16.2815042],[74.3272814,16.2689993],[74.3254974,16.2872856],[74.3436628,16.2915428],[74.3184305,16.3258783],[74.3300268,16.3410427],[74.3211066,16.3798456],[74.3385011,16.3914418],[74.3572335,16.3655732],[74.3651662,16.4031596],[74.3380551,16.401254],[74.3342887,16.4533057],[74.2916699,16.4596813],[74.2925495,16.5033902],[74.2644632,16.4766297],[74.2488528,16.4958081],[74.278387,16.5026712],[74.2642712,16.5393559],[74.2840918,16.5394386],[74.2849797,16.5234607],[74.3023741,16.5297047],[74.3081098,16.5014165],[74.3234376,16.5565926],[74.3573828,16.5584477],[74.3581256,16.539517],[74.3831635,16.526953],[74.3984864,16.5824328],[74.4678444,16.6055265],[74.4586372,16.648774],[74.49106,16.6297227],[74.5442679,16.6340711],[74.5444221,16.5955896],[74.5600526,16.5931866],[74.5553097,16.5632759],[74.5684331,16.5544455],[74.6313044,16.5783073],[74.6417493,16.611336],[74.6882678,16.6094003],[74.651056,16.6352327],[74.6909439,16.6767473],[74.6914744,16.7164393],[74.7323513,16.7184944],[74.7744392,16.7503809],[74.85042,16.7717688],[74.9222821,16.771485],[74.9030558,16.8624086],[74.9628692,16.8794189],[74.9620933,16.9105649],[74.9219101,16.9294208],[74.932144,16.9450203],[74.9651207,16.9274869],[74.9678921,16.9511495],[74.9956798,16.9526274],[75.0270937,16.9443351],[75.0246977,16.9277986],[75.0907463,16.950638],[75.098197,16.913071],[75.1178472,16.9126558],[75.1355859,16.8749712],[75.1896932,16.873591],[75.1818608,16.8437383],[75.2144196,16.8419542],[75.2844434,16.8803109],[75.2831054,16.9552401],[75.3415793,16.9561723],[75.3915954,16.9813289],[75.4257482,16.9681486],[75.4663753,16.9891588],[75.4892719,16.9452516],[75.5295467,16.9707709],[75.5665514,16.9676916],[75.5675645,17.010308],[75.6068304,17.0064473],[75.6080912,16.9726796],[75.6336593,16.9714276],[75.6394904,16.9563995],[75.6719113,16.9630942],[75.6691003,17.038349],[75.6410622,17.0388547],[75.6484222,17.055718],[75.6783486,17.0628476],[75.6738885,17.1136929],[75.6474424,17.1150864],[75.6267464,17.1627507],[75.6283398,17.1892795],[75.6622922,17.2082474],[75.657386,17.270689],[75.6324094,17.272027],[75.6036615,17.3063115],[75.6099915,17.3450674],[75.5817961,17.3526456],[75.5752945,17.3835489],[75.6142187,17.3947293],[75.6079316,17.4227593],[75.633316,17.4776398],[75.6774899,17.4543589],[75.6868675,17.4121836],[75.7329335,17.4207886],[75.7961731,17.3689588],[75.8152741,17.3764926],[75.8232156,17.4218608],[75.8508286,17.4106794],[75.8594505,17.3853789],[75.8846485,17.418675],[75.8911032,17.3558699],[75.9315896,17.3219672],[76.0141777,17.3536745],[76.0584243,17.356147],[76.0788309,17.3331772],[76.1165643,17.3717944],[76.1625266,17.3450674],[76.1752939,17.3027059],[76.1722898,17.3551033],[76.2443018,17.3804772],[76.2497091,17.3634592],[76.271553,17.3612474],[76.2767029,17.335584],[76.3150263,17.3342526],[76.3118291,17.3471565],[76.3422346,17.3563526],[76.3545513,17.3152433],[76.3807726,17.3162471],[76.4114785,17.3523588],[76.4089036,17.3712209],[76.3632631,17.3786547],[76.3709235,17.4369467],[76.3340163,17.4353704],[76.3308191,17.4708651],[76.374464,17.4938695],[76.3446807,17.4955067],[76.3660097,17.5247284],[76.3413763,17.5438796],[76.3306474,17.5981303],[76.4184522,17.6045526],[76.4277,17.6440639],[76.4873504,17.6582036],[76.4871448,17.7135105],[76.5238949,17.7160142],[76.524352,17.7598986],[76.571821,17.7612916],[76.5802543,17.7055857],[76.6133934,17.7710422],[76.6647248,17.6874487],[76.6884022,17.6798276],[76.6935099,17.6959664],[76.7117638,17.6945004],[76.6992647,17.7283521],[76.7282942,17.7375617],[76.7142707,17.7813196],[76.7619149,17.7873963],[76.7906956,17.8250983],[76.7683474,17.8516986],[76.7384463,17.8560369],[76.7399633,17.8995418],[76.7682525,17.9024125],[76.7738041,17.8784664],[76.8055981,17.8708943],[76.8395874,17.8997937],[76.8841747,17.8942591],[76.9004064,17.9175479],[76.9188657,17.9164193],[76.9056888,18.0098573],[76.9144717,18.0355641],[76.953437,18.041985],[76.9440158,18.0833793],[76.9653511,18.0988631],[76.9179532,18.1241137],[76.9513324,18.1883085],[76.9914136,18.1907033],[77.0077634,18.1600623],[77.0237539,18.1585447],[77.0335734,18.1821781],[77.064272,18.1518068],[77.1120397,18.1569213],[77.0969428,18.1965518],[77.1511832,18.2167321],[77.1747463,18.284758],[77.2135787,18.2807959],[77.1987557,18.3145524],[77.2187546,18.3256376],[77.2254004,18.3651396],[77.2485549,18.374435],[77.2333774,18.3880455],[77.2401978,18.4133307],[77.3150008,18.4412645],[77.3210906,18.4591753],[77.3400931,18.4381545],[77.3661482,18.4507161],[77.3726413,18.4009351],[77.41414,18.3922787],[77.394938,18.3694667],[77.4005827,18.3475285],[77.3563009,18.3208867],[77.3657721,18.3089444],[77.4376829,18.3102948],[77.4477005,18.2698727],[77.4654124,18.2634144],[77.4938724,18.2691931],[77.5131713,18.3101532],[77.6034266,18.2793438],[77.5728047,18.2429819],[77.5863998,18.217605],[77.5630683,18.1954571],[77.5972343,18.1565527],[77.6014625,18.0932764],[77.5475089,18.0556508],[77.5884795,18.012386],[77.6048936,18.0201473],[77.6274537,17.9969847],[77.6496742,17.9979809],[77.6559078,17.9684465],[77.6495824,17.9500428],[77.6334601,17.9679494],[77.6245389,17.9594949],[77.6189265,17.9036895],[77.5862317,17.9082835],[77.5983522,17.8732783],[77.5763705,17.8754353],[77.5536177,17.8201121],[77.5288974,17.83005],[77.5059815,17.7863871],[77.5688694,17.7664301],[77.5703231,17.7418117],[77.4529389,17.6948351],[77.4445196,17.5835026],[77.4710304,17.5863047],[77.5064311,17.5413006],[77.5310478,17.5740337],[77.5491474,17.5507532],[77.5941773,17.5644629],[77.6011801,17.5413053],[77.6227276,17.5481377],[77.6193413,17.5290612],[77.6879902,17.5115352],[77.6916687,17.4968306],[77.6844212,17.4745359],[77.6536651,17.4830739],[77.6556826,17.5049682],[77.6385235,17.4733319],[77.6131262,17.4719836],[77.6139006,17.4467358],[77.5765591,17.4568535],[77.5760829,17.430537],[77.5375754,17.4427944],[77.5133123,17.4294861],[77.5137743,17.4119209],[77.5375491,17.4073073],[77.5284624,17.3701379],[77.4833659,17.3549902],[77.4787731,17.3697306],[77.4528803,17.3739303],[77.4557939,17.3311064],[77.4360704,17.2918573],[77.4580297,17.2800071],[77.4197166,17.2375301],[77.3788022,17.2220507],[77.4019289,17.2104587],[77.3939296,17.1937826],[77.3716087,17.1966093],[77.3660536,17.1547739],[77.4620499,17.1104337],[77.5031982,17.0137339],[77.4794903,16.995695],[77.4690936,16.9191876],[77.4529551,16.9145927],[77.457055,16.8296598],[77.4791435,16.8009082],[77.4687291,16.7811335],[77.4381988,16.789988],[77.4464448,16.7681797],[77.425547,16.7225161],[77.4733268,16.716152],[77.468687,16.6843811],[77.4184263,16.6686017],[77.4432929,16.63831],[77.4724645,16.6520639],[77.4522028,16.6155968],[77.4672468,16.5991509],[77.4231961,16.5685087],[77.3922218,16.569654],[77.4179274,16.5486625],[77.4173902,16.5208487],[77.3773446,16.5141141],[77.3694264,16.4881829],[77.2980482,16.496531],[77.2940933,16.4768586],[77.236585,16.4699909],[77.2874404,16.4090716],[77.3482112,16.3846153],[77.4189847,16.3663029],[77.4910668,16.3849805],[77.5575716,16.344538],[77.5891895,16.3441127],[77.5976293,16.2932653],[77.5681765,16.3045801],[77.5451552,16.2923818],[77.5373517,16.2669983],[77.5143579,16.2779507],[77.4900118,16.2552837],[77.4919713,16.2294863],[77.5157501,16.2254048],[77.501342,16.2230927],[77.4862978,16.1646846],[77.4896441,16.1194905],[77.5139191,16.1077628],[77.4923949,16.0857707],[77.5067714,16.077969],[77.4942492,16.0366513],[77.5140765,16.0087225],[77.5133402,15.9280671],[77.2500014,15.9649394],[77.1849632,15.9567697],[77.0860648,15.9196513],[77.0325494,15.8569739],[77.0251855,15.8375092],[77.0651865,15.8278885],[77.0490932,15.7302596],[77.079606,15.7274713],[77.0785761,15.6952273],[77.1289372,15.6658501],[77.1213841,15.6309927],[77.0831895,15.6589803],[77.0304036,15.6345056],[77.0297813,15.5021529],[76.975708,15.510651],[76.9746861,15.4979555],[77.0310688,15.4330801],[77.0404565,15.3642842],[77.0647734,15.3442287],[77.0621127,15.3279015],[77.1133536,15.33382],[77.1183103,15.2948085],[77.151677,15.292242],[77.1476,15.2727643],[77.167148,15.2683552],[77.1250051,15.2269092],[77.1474927,15.2238035],[77.1690362,15.1713106],[77.1344036,15.1482593],[77.1571653,15.1403978],[77.1562743,15.1229839],[77.1300101,15.1004038],[77.112844,15.0339341],[77.0847773,15.0307012],[77.0825715,15.0060658],[77.0442652,15.0098523],[77.0495868,15.0330844],[77.004118,15.0337994],[76.9853103,15.0155518],[76.9183838,15.0358199],[76.8772817,15.0306494],[76.8661022,15.0600127],[76.8360937,15.0796135],[76.8003559,15.0961788],[76.7767525,15.0784118],[76.790185,15.020733],[76.7600837,14.989595],[76.7666888,14.9745434],[76.8288731,14.9561249],[76.8672502,14.9695166],[76.8695569,14.937767],[76.863817,14.8954581],[76.8457925,14.8917566],[76.8542683,14.8098404],[76.8372953,14.8110332],[76.8366408,14.7908995],[76.78231,14.7860863],[76.8035531,14.7424559],[76.7752558,14.6810442],[76.7650366,14.602044],[76.7819881,14.5964582],[76.8065142,14.5310592],[76.8558454,14.5093521],[76.8680119,14.4739723],[76.9007134,14.4892634],[76.9747853,14.4853005],[76.9598508,14.450535],[76.9447017,14.4508052],[76.9425559,14.400307],[76.9156694,14.4207154],[76.8852854,14.3920973],[76.8849635,14.3473651],[76.9565409,14.2943119],[76.9247675,14.273658],[76.9401526,14.2445427],[77.054286,14.2451875],[77.0812797,14.2141757],[77.1096253,14.2207278],[77.1153116,14.2921234],[77.1356106,14.3367004],[77.157197,14.3421263],[77.2377491,14.3174277],[77.2866082,14.3402345],[77.2835398,14.2828909],[77.3638434,14.2758136],[77.3593926,14.2343307],[77.3841548,14.2209566],[77.3870301,14.1998851],[77.4197531,14.2116172],[77.3765588,14.3056596],[77.3930383,14.3358064],[77.4460601,14.3173238],[77.4504161,14.2805827],[77.4819803,14.2913748],[77.5035238,14.2651006],[77.4924409,14.2307637],[77.5170421,14.182858],[77.5036526,14.1572785],[77.393682,14.1742556],[77.3788762,14.1359722],[77.3519897,14.1311031],[77.3474192,14.103468],[77.4013853,14.1198247],[77.3601007,14.062113],[77.340424,14.0601356],[77.332313,14.0306807],[77.3902917,14.0166077],[77.381494,13.9761949],[77.4267268,13.9861895],[77.4388718,13.9755077],[77.4350738,13.9473748],[77.4119854,13.945917],[77.4346447,13.9147605],[77.3989461,13.8884859],[77.3976087,13.9065333],[77.358427,13.9035443],[77.3477196,13.916031],[77.371602,13.9531641],[77.3495865,13.9585159],[77.3608303,13.9911449],[77.3363256,13.9959753],[77.3220992,14.0300562],[77.2749781,14.0115695],[77.2700858,14.0344903],[77.2454631,14.0118922],[77.1409321,14.0038246],[77.1268344,14.0471468],[77.0315623,14.0569301],[77.0146751,14.1000966],[77.0221424,14.177397],[76.9613313,14.1815162],[76.9474911,14.1980754],[76.9421482,14.173257],[76.8945336,14.1678789],[76.8860149,14.1383651],[76.9249177,14.1370543],[76.945796,14.118701],[76.9482035,14.0919407],[76.9749999,14.0810327],[76.9717812,14.0583663],[76.9325781,14.0551192],[76.9311189,14.0302436],[76.999172,13.9904057],[76.9938505,13.9625453],[77.0414972,13.9334528],[77.0472264,13.9065958],[77.0229792,13.9026174],[77.0141559,13.8602332],[76.9781327,13.8269539],[76.9986892,13.7453046],[77.0166278,13.7387598],[77.0244276,13.7792244],[77.0434284,13.7777969],[77.0643496,13.7439602],[77.0856356,13.7423449],[77.0904207,13.7672515],[77.1729469,13.7620828],[77.178483,13.7830486],[77.1574759,13.8060129],[77.1686768,13.8295375],[77.1281862,13.8565181],[77.1684623,13.8645179],[77.1620572,13.9067624],[77.1847272,13.925143],[77.1814441,13.8698718],[77.2004342,13.8631013],[77.2116887,13.8857869],[77.2199392,13.8676844],[77.2358393,13.9040963],[77.2484135,13.9013052],[77.2568464,13.8465804],[77.288475,13.8474346],[77.3110699,13.8665178],[77.3256397,13.833017],[77.3627186,13.8542264],[77.3828029,13.8392675],[77.4324936,13.8432365],[77.4226713,13.7989279],[77.4645352,13.8080758],[77.4553004,13.6822469],[77.4918508,13.6900638],[77.4848985,13.7147883],[77.5143599,13.7130893],[77.5249815,13.6911583],[77.5280285,13.7539231],[77.5473189,13.7531207],[77.5604081,13.7224803],[77.5997937,13.7506196],[77.6278818,13.734591],[77.642312,13.747118],[77.6189983,13.7553091],[77.6211655,13.7684602],[77.6801741,13.786758],[77.6714086,13.760478],[77.7033806,13.7697941],[77.717371,13.7410318],[77.7193773,13.8002303],[77.7815723,13.8182026],[77.7822697,13.8441116],[77.8370404,13.8699343],[77.8135443,13.9152395],[77.8265476,13.9447716],[77.895813,13.9410231],[77.8958022,13.9202902],[77.9267335,13.9053877],[77.9675674,13.9603068],[77.9828882,13.9577246],[77.9844975,13.8977225],[77.9493928,13.8872659],[77.9529547,13.8271831],[77.9762149,13.8296208],[78.0008912,13.8732257],[78.0459738,13.8621638],[78.0489564,13.8962228],[78.0789757,13.8812041],[78.0814862,13.8613305],[78.114869,13.8628461],[78.1235862,13.8451845],[78.1137156,13.807409],[78.1265902,13.7865705],[78.0917859,13.7423032],[78.1210756,13.7154762],[78.1134152,13.692503],[78.0694699,13.6976523],[78.0872938,13.6434484],[78.1562752,13.6584936],[78.1684492,13.6326385],[78.204123,13.6283986],[78.193121,13.5643932],[78.2371182,13.5988452],[78.2585158,13.5827199],[78.4019887,13.5879174],[78.3753598,13.5090437],[78.3817649,13.3971969],[78.3650494,13.3619699],[78.4086835,13.3428251],[78.37713,13.332062],[78.4011263,13.3153679],[78.440237,13.3283663],[78.4441638,13.3082374],[78.4834099,13.321194],[78.4794617,13.3012629],[78.5319686,13.2668678],[78.5391569,13.2876579],[78.5615265,13.2884723],[78.5654962,13.3117768],[78.5875761,13.2719428],[78.5702169,13.2474753],[78.5665369,13.220718],[78.5789931,13.2130934],[78.5501969,13.200225],[78.5761607,13.186583],[78.579905,13.167414],[78.5500359,13.1636531],[78.5457659,13.1428629],[78.5175919,13.1324148],[78.5385775,13.1056659],[78.5102105,13.0920186],[78.5161435,13.0628823],[78.4622741,13.0433692],[78.4675419,12.9750139],[78.4353661,12.98113],[78.436718,12.9623214],[78.411119,12.9454457],[78.4183502,12.9228385],[78.4275985,12.9330653],[78.4665549,12.9053118],[78.4647471,12.8666985],[78.4449148,12.9120465],[78.4120845,12.9030529],[78.3983516,12.9175263],[78.3896398,12.9064621],[78.3557796,12.9406777],[78.3441067,12.9079681],[78.3234429,12.9019025],[78.3203745,12.8872818],[78.3369398,12.8823244],[78.3136797,12.8761746],[78.3123708,12.8583517],[78.2531261,12.8617616],[78.2313763,12.7621184],[78.1339696,12.7821215],[78.0540859,12.8535613],[78.0229979,12.8565505],[78.0284303,12.845123],[78.0036685,12.8251817],[78.0096947,12.8056928],[77.9884493,12.8086283],[77.9528558,12.8568781],[77.9403604,12.8545935],[77.9405052,12.8231857],[77.9205678,12.8275632],[77.9420208,12.8731977],[77.9269029,12.8741743],[77.9294394,12.8909806],[77.8906172,12.8698077],[77.8367365,12.8704003],[77.7925886,12.843407],[77.8100554,12.8310227],[77.8090335,12.7968339],[77.7789033,12.7679585],[77.7920018,12.7467495],[77.7629969,12.7364006],[77.774408,12.7245132],[77.7625707,12.6969587],[77.7375615,12.6983929],[77.7410016,12.6737335],[77.7119605,12.6833941],[77.710863,12.6663936],[77.6896487,12.6584938],[77.6632533,12.6832724],[77.5979317,12.6680917],[77.6060539,12.6281392],[77.5803081,12.5515804],[77.5872084,12.5147907],[77.616218,12.5093024],[77.5839531,12.4785472],[77.6350296,12.4874081],[77.6293521,12.4161614],[77.6139569,12.362416],[77.5517462,12.2917279],[77.4790463,12.269874],[77.4724375,12.2078956],[77.519297,12.1948911],[77.6091095,12.2059696],[77.7334868,12.177071],[77.7787651,12.1084019],[77.724072,12.0544479],[77.6755592,11.9520457],[77.5381565,11.9324507],[77.4947047,11.9438082],[77.486465,11.8882757],[77.4617457,11.9002754],[77.4667883,11.8471281],[77.4281323,11.7609806],[77.3926628,11.787858],[77.3648214,11.7903891],[77.3360252,11.7714],[77.2939682,11.8089463],[77.250216,11.812895],[77.2378993,11.7947056],[77.1109342,11.7736476],[77.1157837,11.7213897],[77.057333,11.7666945],[77.066946,11.788026],[77.0343303,11.7703812],[77.0287299,11.8053967],[76.982038,11.8118238],[76.9683265,11.7772922],[76.9557836,11.7915391],[76.9071078,11.7955248],[76.887238,11.7330501],[76.8350744,11.6553887],[76.8538284,11.5971021],[76.7557264,11.6177871],[76.6174629,11.6079752],[76.5630495,11.6204632],[76.5501152,11.677997],[76.5139882,11.7056491],[76.4609129,11.662387],[76.4157324,11.672535],[76.4032517,11.7114577],[76.4273969,11.7261284],[76.4102618,11.7415322],[76.4146881,11.757652],[76.3403408,11.7382109],[76.2804932,11.8115352],[76.2218756,11.8101411],[76.1918737,11.8710337],[76.1201314,11.8506066],[76.1125536,11.9786826],[76.0036262,11.9312137],[75.8691788,11.9534124],[75.8294177,11.9861585],[75.8015013,12.0370541],[75.8031106,12.0783302],[75.7155633,12.0703147],[75.701487,12.1093617],[75.660916,12.0995375],[75.6381011,12.1471444],[75.5916184,12.1479101],[75.5322504,12.2014699],[75.53931,12.2165071],[75.4848578,12.2899964],[75.4155084,12.2882499],[75.4323219,12.309644],[75.4099846,12.3474851],[75.4217756,12.3715581],[75.3715646,12.4000823],[75.3654385,12.4578232],[75.3947496,12.4518936],[75.4236746,12.4673355],[75.4161283,12.5000289],[75.3821325,12.5008141],[75.359559,12.4646117],[75.3367924,12.4638365],[75.3320074,12.4986773],[75.3059149,12.5014216],[75.3024387,12.5215318],[75.2732563,12.5357546],[75.2742219,12.5715072],[75.289607,12.5824603],[75.3143263,12.5738738],[75.327115,12.5920726],[75.2738571,12.6188973],[75.2368855,12.5689835],[75.2201486,12.5692976],[75.2004933,12.5895491],[75.2005577,12.6288643],[75.1616764,12.6215147],[75.1407981,12.6424949],[75.1613867,12.671523],[75.1517215,12.6828137],[75.121518,12.6789767],[75.0857674,12.7035965],[75.0864884,12.674549],[75.0470706,12.6687814],[75.0526929,12.7203702],[75.0020957,12.716027],[75.0134575,12.7286378],[74.9841118,12.7356734],[75.0109338,12.7684787],[75.0057542,12.7926243],[74.8640682,12.7600633],[74.8011376,12.9212145],[74.8082306,12.9244814],[74.8150867,12.9164857],[74.8203275,12.9305888],[74.7996173,12.9295145],[74.7157323,13.3161514],[74.690541,13.3487574],[74.6766579,13.5799342],[74.60706,13.8685802],[74.5700347,13.9464402],[74.5490947,13.9485566],[74.5146713,13.9874907],[74.4701117,14.1839606],[74.4414416,14.2243808],[74.3596584,14.5173497],[74.3098792,14.521473],[74.3156809,14.5286341],[74.3100804,14.5539868],[74.2919701,14.6002945],[74.2736193,14.6271002],[74.2697353,14.6269822],[74.2842695,14.632013],[74.2822659,14.6752373],[74.2674494,14.7040834],[74.2515812,14.7059464],[74.2621493,14.7194259],[74.2337769,14.7480638],[74.2049056,14.7367596],[74.2046803,14.7187307],[74.1783571,14.7500974],[74.1526937,14.7475451],[74.1400766,14.7794056],[74.1191669,14.7743826],[74.0931487,14.8040318],[74.122932,14.8045193],[74.1219074,14.8423502],[74.0963566,14.8976769],[74.0848741,14.9002456]]],[[[74.265697,15.8273185],[74.2942182,15.8303141],[74.314429,15.7906545],[74.2704298,15.7944838],[74.265697,15.8273185]]]]}},{"type":"Feature","properties":{"NAME_1":"Kerala"},"geometry":{"type":"Polygon","coordinates":[[[74.8640682,12.7600633],[75.0057542,12.7926243],[75.0109338,12.7684787],[74.9841118,12.7356734],[75.0134575,12.7286378],[75.0020957,12.716027],[75.0526929,12.7203702],[75.0470706,12.6687814],[75.0864884,12.674549],[75.0857674,12.7035965],[75.121518,12.6789767],[75.1517215,12.6828137],[75.1613867,12.671523],[75.1407981,12.6424949],[75.1616764,12.6215147],[75.2005577,12.6288643],[75.2004933,12.5895491],[75.2201486,12.5692976],[75.2368855,12.5689835],[75.2738571,12.6188973],[75.327115,12.5920726],[75.3143263,12.5738738],[75.289607,12.5824603],[75.2742219,12.5715072],[75.2732563,12.5357546],[75.3024387,12.5215318],[75.3059149,12.5014216],[75.3320074,12.4986773],[75.3367924,12.4638365],[75.359559,12.4646117],[75.3821325,12.5008141],[75.4161283,12.5000289],[75.4236746,12.4673355],[75.3947496,12.4518936],[75.3654385,12.4578232],[75.3715646,12.4000823],[75.4217756,12.3715581],[75.4099846,12.3474851],[75.4323219,12.309644],[75.4141513,12.2896307],[75.4848578,12.2899964],[75.53931,12.2165071],[75.5322504,12.2014699],[75.5916184,12.1479101],[75.6381011,12.1471444],[75.660916,12.0995375],[75.701487,12.1093617],[75.7155633,12.0703147],[75.8031106,12.0783302],[75.8010506,12.0379145],[75.8589005,11.959815],[76.0036262,11.9312137],[76.1125536,11.9786826],[76.1201314,11.8506066],[76.1898531,11.8718512],[76.2076974,11.8608767],[76.2218756,11.8101411],[76.2804932,11.8115352],[76.3403408,11.7382109],[76.4146881,11.757652],[76.4102618,11.7415322],[76.4273969,11.7261284],[76.4030496,11.7076447],[76.4409783,11.6402799],[76.3882398,11.6297954],[76.377511,11.6017317],[76.3022669,11.5712662],[76.278921,11.6008997],[76.2344047,11.5721629],[76.2518815,11.5377559],[76.2384322,11.5247987],[76.2476106,11.4685065],[76.2844385,11.4829981],[76.3254367,11.4533506],[76.3421207,11.4674834],[76.397844,11.4347182],[76.4187642,11.4417658],[76.4152045,11.422658],[76.4598932,11.389061],[76.5176486,11.3708473],[76.5082938,11.3534921],[76.547735,11.3582138],[76.5455218,11.2995883],[76.5221244,11.2706426],[76.4532206,11.2394311],[76.4386241,11.1989498],[76.4584482,11.1876836],[76.4723759,11.20875],[76.500345,11.2114533],[76.5338473,11.1967144],[76.6009128,11.206543],[76.6297147,11.1941329],[76.6982764,11.2397325],[76.7315647,11.2155646],[76.7288129,11.1909166],[76.6998804,11.1812647],[76.6896769,11.1594753],[76.7282297,11.1300211],[76.748085,11.1362135],[76.7460874,11.0552069],[76.7774165,11.0424107],[76.8009782,11.0542928],[76.766538,11.0290375],[76.7109898,11.0390469],[76.6592596,10.930481],[76.7408374,10.8910951],[76.8279693,10.8729775],[76.8536527,10.8388873],[76.8481046,10.8192432],[76.8994045,10.8084783],[76.9076683,10.7795401],[76.866286,10.6853867],[76.8825506,10.6394399],[76.8144653,10.6358341],[76.8108701,10.6233233],[76.817726,10.6027655],[76.8381643,10.5972973],[76.8431071,10.5372757],[76.8162346,10.4232416],[76.8485945,10.3688254],[76.830193,10.3039451],[76.8482492,10.2850958],[76.8732472,10.2986419],[76.8734481,10.2766416],[76.9105718,10.2358565],[76.9824635,10.2204226],[77.0453401,10.2559894],[77.0435226,10.283785],[77.1749748,10.3575344],[77.2367574,10.3522049],[77.2290801,10.3142438],[77.2631376,10.2632784],[77.2590105,10.230337],[77.2810185,10.2366199],[77.2953415,10.2200327],[77.2752611,10.1841822],[77.2742141,10.129718],[77.237937,10.129924],[77.2012647,10.1058285],[77.261838,10.0301501],[77.253124,10.0127193],[77.2728925,9.9646607],[77.2465387,9.951347],[77.2182614,9.9042905],[77.212227,9.8775749],[77.23705,9.8513724],[77.2219843,9.8225317],[77.2466845,9.7979099],[77.2227339,9.7878538],[77.22354,9.7298524],[77.2043866,9.7232917],[77.2067238,9.6948851],[77.165861,9.6127905],[77.2088424,9.6135261],[77.2342193,9.5815727],[77.2698843,9.5728159],[77.3178326,9.6025571],[77.3394765,9.5733512],[77.3611684,9.6022286],[77.3502652,9.5668887],[77.3654343,9.535214],[77.3852256,9.5191907],[77.4003882,9.5274563],[77.4123612,9.5090025],[77.3925338,9.4594507],[77.3659051,9.460054],[77.3493221,9.4411021],[77.3252493,9.3371002],[77.3000738,9.3366577],[77.2995569,9.3108505],[77.2830277,9.3012647],[77.2818494,9.2169615],[77.2515135,9.1883692],[77.265091,9.1818381],[77.2665122,9.1520784],[77.2124795,9.1004671],[77.1974496,9.0469338],[77.1674921,9.0453678],[77.1465424,9.0217642],[77.1967007,8.9535562],[77.1932152,8.9256998],[77.2563706,8.8788093],[77.2628861,8.8422216],[77.2298001,8.784528],[77.1974706,8.7690371],[77.1921598,8.7443269],[77.1701051,8.7418191],[77.2067466,8.6841862],[77.200739,8.6690623],[77.2838186,8.5465612],[77.2618378,8.5062196],[77.2400202,8.4969158],[77.2143049,8.5128026],[77.2026364,8.5014051],[77.2280261,8.4472326],[77.2067135,8.4448145],[77.1685764,8.384137],[77.1512317,8.3850489],[77.1529404,8.3550507],[77.174358,8.3586871],[77.1758022,8.320353],[77.169187,8.3326577],[77.1397005,8.3297748],[77.0962964,8.2935318],[76.9937955,8.3726478],[76.9988584,8.3564689],[76.9900032,8.363187],[76.988734,8.3654612],[76.9890194,8.3676074],[76.9948053,8.3751723],[76.9574261,8.4259298],[76.6331792,8.8347814],[76.5466726,8.9032504],[76.5354636,8.9333413],[76.5407637,8.9320827],[76.5410614,8.9377],[76.5184635,9.0188596],[76.3304071,9.4381515],[76.2439113,9.97262],[76.2245674,9.9738528],[76.0811216,10.4222445],[75.9085412,10.7866048],[75.836767,11.0958719],[75.8149794,11.1477032],[75.7961901,11.155972],[75.7350481,11.350614],[75.6821479,11.4491626],[75.6171745,11.477312],[75.5359304,11.6923862],[75.5446822,11.70447],[75.5241019,11.7074149],[75.4535568,11.7712876],[75.3858018,11.8552394],[75.3551039,11.8598834],[75.2450609,12.0120797],[75.2293405,12.0213285],[75.2012591,12.0059342],[75.054343,12.358746],[74.9806288,12.4728639],[74.8640682,12.7600633]],[[75.5304001,11.7084629],[75.5540857,11.7208428],[75.5382612,11.7628245],[75.5390774,11.7355085],[75.5304001,11.7084629]]]}},{"type":"Feature","properties":{"NAME_1":"Tamil Nadu"},"geometry":{"type":"MultiPolygon","coordinates":[[[[76.2329467,11.5695614],[76.278921,11.6008997],[76.3022669,11.5712662],[76.3360207,11.595719],[76.3542085,11.5894227],[76.3882398,11.6297954],[76.4326787,11.6314934],[76.4435318,11.6447354],[76.4312794,11.6660763],[76.4609129,11.662387],[76.5139882,11.7056491],[76.5501152,11.677997],[76.5697397,11.6173411],[76.7557264,11.6177871],[76.8463789,11.5945587],[76.8581575,11.6132605],[76.8350744,11.6553887],[76.887238,11.7330501],[76.9071078,11.7955248],[76.9557836,11.7915391],[76.9683265,11.7772922],[76.982038,11.8118238],[77.0128298,11.8147223],[77.0380211,11.7946846],[77.0288801,11.7746244],[77.0649075,11.7893073],[77.0579123,11.7659172],[77.1157837,11.7213897],[77.1109342,11.7736476],[77.2378993,11.7947056],[77.250216,11.812895],[77.2939682,11.8089463],[77.3360252,11.7714],[77.3648214,11.7903891],[77.3926628,11.787858],[77.4281323,11.7609806],[77.4667883,11.8471281],[77.4617457,11.9002754],[77.486465,11.8882757],[77.4947047,11.9438082],[77.5381565,11.9324507],[77.6755592,11.9520457],[77.724072,12.0544479],[77.7792422,12.114267],[77.7540895,12.1303949],[77.7272941,12.1816073],[77.6091095,12.2059696],[77.4941832,12.1974026],[77.4724375,12.2078956],[77.4823214,12.2309796],[77.4706385,12.2433585],[77.4886707,12.2795532],[77.5517462,12.2917279],[77.6139569,12.362416],[77.6350296,12.4874081],[77.5839531,12.4785472],[77.616218,12.5093024],[77.5872084,12.5147907],[77.5803081,12.5515804],[77.6060539,12.6281392],[77.5979317,12.6680917],[77.6632533,12.6832724],[77.6896487,12.6584938],[77.710863,12.6663936],[77.7119605,12.6833941],[77.7410016,12.6737335],[77.7375615,12.6983929],[77.7625707,12.6969587],[77.774408,12.7245132],[77.7629969,12.7364006],[77.7920018,12.7467495],[77.7789033,12.7679585],[77.8090335,12.7968339],[77.8100554,12.8310227],[77.7925886,12.843407],[77.8367365,12.8704003],[77.8906172,12.8698077],[77.9294394,12.8909806],[77.9269029,12.8741743],[77.9420208,12.8731977],[77.9173673,12.8314503],[77.9405052,12.8231857],[77.9403604,12.8545935],[77.9528558,12.8568781],[77.9953444,12.8066761],[78.0144071,12.8122197],[78.0036685,12.8251817],[78.0284303,12.845123],[78.0229979,12.8565505],[78.0540859,12.8535613],[78.1339696,12.7821215],[78.2313763,12.7621184],[78.2409303,12.7298647],[78.2065474,12.7075517],[78.2105026,12.6846881],[78.2678556,12.7056757],[78.3004582,12.6652508],[78.3726078,12.6268123],[78.4271049,12.6352714],[78.4649133,12.6238599],[78.4678955,12.6758055],[78.4995917,12.6765657],[78.5029471,12.716634],[78.5197806,12.711893],[78.4891605,12.7419596],[78.5171413,12.7244308],[78.5210252,12.7360889],[78.5250163,12.715577],[78.5444569,12.7105324],[78.5295868,12.7092975],[78.5361743,12.6903743],[78.5560226,12.7002966],[78.5554647,12.7557621],[78.5925221,12.7826114],[78.6337101,12.9316223],[78.6569166,12.9320615],[78.6210179,12.9911976],[78.6562514,13.0311505],[78.7047672,13.0154712],[78.7141013,13.0686722],[78.7514591,13.0548766],[78.7934732,13.0660595],[78.8131848,13.0891814],[78.8420192,13.0788672],[78.8901937,13.097233],[78.8916635,13.0331364],[78.9371323,13.0304397],[78.9408445,13.0364812],[78.929193,13.0456373],[78.9038408,13.0476231],[78.9240432,13.0809414],[78.9952612,13.0865845],[79.0632069,13.0533193],[79.0808558,13.0255687],[79.1146517,13.0393869],[79.1632747,13.0202378],[79.1931867,13.0467243],[79.1802692,13.0495044],[79.1920709,13.0559636],[79.1787028,13.0587227],[79.1921139,13.0672091],[79.1805267,13.0843273],[79.2344069,13.1051225],[79.2329049,13.1392688],[79.2099237,13.1484628],[79.2346215,13.1706525],[79.2451572,13.1384747],[79.2570877,13.1607906],[79.2806268,13.1526209],[79.2840761,13.1227813],[79.3127703,13.126104],[79.2943167,13.1094903],[79.3072128,13.1054778],[79.3412661,13.1369493],[79.3452787,13.1215066],[79.3607497,13.1235755],[79.3562221,13.1645307],[79.3796754,13.1629218],[79.3726373,13.1788843],[79.3877864,13.1773382],[79.3742251,13.1894348],[79.4387054,13.1883275],[79.4531035,13.2384834],[79.4311094,13.2297732],[79.4378793,13.2429637],[79.4185781,13.242995],[79.4084501,13.2654058],[79.43362,13.2748875],[79.4456792,13.3004485],[79.4188142,13.289694],[79.381907,13.3077572],[79.435633,13.3517293],[79.4564544,13.3384904],[79.4996452,13.3478045],[79.4973492,13.332417],[79.537282,13.3385345],[79.5347714,13.2752216],[79.5804977,13.2573231],[79.5987368,13.2857993],[79.6318459,13.2697917],[79.6424676,13.2902185],[79.6652984,13.2786675],[79.683001,13.2956352],[79.6957791,13.2670871],[79.6783554,13.2618031],[79.6842885,13.2443318],[79.7126019,13.2444676],[79.7025597,13.2223786],[79.7183955,13.2163521],[79.7371173,13.2362275],[79.7597122,13.207286],[79.7944897,13.2263161],[79.7947311,13.2419298],[79.7335338,13.2887752],[79.7559035,13.2944761],[79.7606671,13.3184796],[79.791652,13.2935678],[79.8090649,13.3172998],[79.8629773,13.317091],[79.9159884,13.359997],[79.9381113,13.3557172],[79.9627125,13.3917592],[79.9344528,13.4166191],[79.973216,13.4295073],[79.9723792,13.4689919],[80.0075698,13.4785073],[80.0157881,13.4979125],[80.0466656,13.493656],[80.0485325,13.512601],[80.000601,13.5256724],[80.0018317,13.5464009],[80.0569975,13.5367077],[80.0814914,13.5488802],[80.0774789,13.4893785],[80.1382684,13.5045474],[80.2417803,13.4725393],[80.2679813,13.5639111],[80.2972108,13.4812668],[80.3241026,13.4529807],[80.344466,13.3186257],[80.3592923,13.3075206],[80.3471303,13.3141585],[80.3474352,13.2960241],[80.3592923,13.3028975],[80.3456676,13.2784378],[80.3529767,13.2546441],[80.3388038,13.2757281],[80.3463295,13.258416],[80.2985948,13.1385818],[80.2935067,13.0864147],[80.300298,13.0910702],[80.3069299,13.1017446],[80.2591709,12.9347412],[80.254656,12.7805891],[80.1541954,12.4659107],[80.0313154,12.2987246],[79.8745961,12.0418114],[79.8500873,12.0509816],[79.8422702,12.0124773],[79.8588485,12.0088112],[79.8410407,11.9581674],[79.8235747,11.9621575],[79.815378,11.9797716],[79.8049815,11.9533063],[79.7846842,11.959942],[79.7504425,11.9200639],[79.7448111,11.9648173],[79.7237974,11.9759835],[79.7605942,11.9895703],[79.7472507,12.0076565],[79.6915305,11.9513866],[79.7110891,11.932965],[79.7097158,11.9498437],[79.7210123,11.9453174],[79.7175399,11.9289427],[79.7405251,11.9057124],[79.7110784,11.8909423],[79.7063736,11.9136351],[79.7186636,11.9185832],[79.6962248,11.9191299],[79.6953861,11.8948164],[79.6738279,11.8915827],[79.6740103,11.880727],[79.709494,11.8893127],[79.7196346,11.8530344],[79.7338889,11.8655938],[79.7525239,11.8487766],[79.7637784,11.8770523],[79.7662781,11.8405629],[79.7814917,11.8558314],[79.8081225,11.845246],[79.7979484,11.8234183],[79.7731106,11.821928],[79.7393311,11.8414671],[79.7380064,11.8071909],[79.7163147,11.7896388],[79.7535714,11.7752328],[79.7626787,11.7893076],[79.7962922,11.7851444],[79.7586581,11.560975],[79.8371878,11.3556196],[79.8583714,11.1490556],[79.8542609,10.9833425],[79.8402536,11.0026028],[79.8154485,11.0029346],[79.7976708,10.9819864],[79.7483504,11.0025449],[79.7620725,10.9606998],[79.7255301,10.9691472],[79.719522,10.9555385],[79.7361946,10.9536004],[79.7234273,10.9298783],[79.7625339,10.9139817],[79.7562039,10.8918263],[79.7904289,10.9085879],[79.7832942,10.8890238],[79.8288059,10.8840931],[79.8113393,10.8803844],[79.8248577,10.8649594],[79.8080349,10.8555607],[79.8288274,10.8495757],[79.8309302,10.8277421],[79.8514695,10.8277759],[79.8805189,10.2970643],[79.8445816,10.2773456],[79.7646468,10.2736117],[79.3957579,10.3179698],[79.2785186,10.2452404],[79.2676932,10.2283317],[79.2812169,10.213745],[79.2406887,10.1796013],[79.2264435,10.1003918],[79.2665935,10.0380614],[79.1547447,9.9318947],[79.1189767,9.8763454],[79.1214001,9.8550892],[78.9806163,9.6891223],[78.9293432,9.5951327],[78.9144677,9.4940431],[78.8978219,9.486297],[78.9380228,9.4084567],[79.036529,9.3169247],[79.1050386,9.2889476],[79.1907111,9.2821791],[79.09284,9.2603373],[78.9767754,9.2736051],[78.9063084,9.2499281],[78.8608503,9.2537614],[78.7277055,9.2094375],[78.717851,9.1902681],[78.6605,9.1931648],[78.6430711,9.1768807],[78.6573029,9.1578949],[78.5763109,9.1304339],[78.4567273,9.1258206],[78.3816496,9.0904302],[78.220312,8.9703712],[78.1861943,8.9228643],[78.1569073,8.7726071],[78.1798428,8.7662785],[78.1839251,8.7900614],[78.1975615,8.7880415],[78.2136676,8.7568331],[78.1991928,8.7525601],[78.2259134,8.7482004],[78.2162638,8.7436523],[78.1940915,8.7530884],[78.1737789,8.7460524],[78.1362635,8.6887372],[78.130116,8.4960504],[78.0651265,8.4164719],[78.0566382,8.3850224],[78.0673698,8.3728292],[77.8022736,8.2394116],[77.7779406,8.1977865],[77.70651,8.1644179],[77.7175856,8.1647594],[77.7260291,8.160591],[77.7175319,8.1646532],[77.710923,8.1639416],[77.7007788,8.1545533],[77.6469362,8.1589634],[77.5773409,8.1366603],[77.5514066,8.0772477],[77.3188101,8.1203224],[77.0962964,8.2935318],[77.1397005,8.3297748],[77.1801137,8.3238642],[77.174358,8.3586871],[77.1529404,8.3550507],[77.1512317,8.3850489],[77.1685764,8.384137],[77.2067135,8.4448145],[77.2280261,8.4472326],[77.2026364,8.5014051],[77.2143049,8.5128026],[77.2400202,8.4969158],[77.2618378,8.5062196],[77.2838186,8.5465612],[77.200739,8.6690623],[77.2067466,8.6841862],[77.1701051,8.7418191],[77.1921598,8.7443269],[77.1974706,8.7690371],[77.2298001,8.784528],[77.2628861,8.8422216],[77.2563706,8.8788093],[77.1932152,8.9256998],[77.1967007,8.9535562],[77.1465424,9.0217642],[77.1674921,9.0453678],[77.1974496,9.0469338],[77.2124795,9.1004671],[77.2665122,9.1520784],[77.265091,9.1818381],[77.2515135,9.1883692],[77.2818494,9.2169615],[77.2830277,9.3012647],[77.2995569,9.3108505],[77.3000738,9.3366577],[77.3252493,9.3371002],[77.3493221,9.4411021],[77.3659051,9.460054],[77.3925338,9.4594507],[77.4123612,9.5090025],[77.4003882,9.5274563],[77.3852256,9.5191907],[77.3654343,9.535214],[77.3502652,9.5668887],[77.3611684,9.6022286],[77.3394765,9.5733512],[77.3178326,9.6025571],[77.2698843,9.5728159],[77.2342193,9.5815727],[77.2088424,9.6135261],[77.165861,9.6127905],[77.2067238,9.6948851],[77.2043866,9.7232917],[77.22354,9.7298524],[77.2227339,9.7878538],[77.2466845,9.7979099],[77.2219843,9.8225317],[77.23705,9.8513724],[77.212227,9.8775749],[77.2182614,9.9042905],[77.2465387,9.951347],[77.2728925,9.9646607],[77.253124,10.0127193],[77.261838,10.0301501],[77.2012647,10.1058285],[77.237937,10.129924],[77.2742141,10.129718],[77.2752611,10.1841822],[77.2953415,10.2200327],[77.2810185,10.2366199],[77.2590105,10.230337],[77.2631376,10.2632784],[77.2290801,10.3142438],[77.2367574,10.3522049],[77.1749748,10.3575344],[77.0435226,10.283785],[77.0453401,10.2559894],[76.9824635,10.2204226],[76.9105718,10.2358565],[76.8734481,10.2766416],[76.8732472,10.2986419],[76.8482492,10.2850958],[76.830193,10.3039451],[76.8485945,10.3688254],[76.8162346,10.4232416],[76.8431071,10.5372757],[76.8381643,10.5972973],[76.817726,10.6027655],[76.8108701,10.6233233],[76.8144653,10.6358341],[76.8825506,10.6394399],[76.866286,10.6853867],[76.9076683,10.7795401],[76.8994045,10.8084783],[76.8481046,10.8192432],[76.8536527,10.8388873],[76.8279693,10.8729775],[76.7408374,10.8910951],[76.6592596,10.930481],[76.7109898,11.0390469],[76.766538,11.0290375],[76.8009782,11.0542928],[76.7774165,11.0424107],[76.7460874,11.0552069],[76.748085,11.1362135],[76.7282297,11.1300211],[76.6896769,11.1594753],[76.6998804,11.1812647],[76.7288129,11.1909166],[76.7315647,11.2155646],[76.6982764,11.2397325],[76.6297147,11.1941329],[76.6009128,11.206543],[76.5338473,11.1967144],[76.51048,11.2116272],[76.4723759,11.20875],[76.4584482,11.1876836],[76.4386241,11.1989498],[76.4532206,11.2394311],[76.5221244,11.2706426],[76.5455218,11.2995883],[76.547735,11.3582138],[76.5082938,11.3534921],[76.5176486,11.3708473],[76.4598932,11.389061],[76.4152045,11.422658],[76.4187642,11.4417658],[76.397844,11.4347182],[76.3421207,11.4674834],[76.3254367,11.4533506],[76.2844385,11.4829981],[76.2476106,11.4685065],[76.2384322,11.5247987],[76.2518815,11.5377559],[76.2329467,11.5695614]],[[79.5994182,11.8817346],[79.6027816,11.8600009],[79.6263258,11.8700916],[79.6428844,11.8504279],[79.662289,11.8615533],[79.6387448,11.8866505],[79.5994182,11.8817346]],[[79.616847,11.9896639],[79.6292495,11.9537693],[79.6182632,11.925932],[79.6364808,11.9012833],[79.6703624,11.9292491],[79.6579599,11.948878],[79.6427463,11.9420553],[79.6368027,11.9985633],[79.6513294,12.0229933],[79.6252799,12.0317866],[79.616847,11.9896639]],[[79.6534685,11.8126209],[79.6715174,11.8136144],[79.6480042,11.8440822],[79.6534685,11.8126209]],[[79.6572525,11.9582583],[79.6799642,11.9466538],[79.6919004,11.967763],[79.6679176,11.9685366],[79.6572525,11.9582583]],[[79.6601347,11.9964621],[79.6866544,11.9821529],[79.7203287,11.9963667],[79.6876084,12.0348107],[79.6601347,11.9964621]],[[79.6812436,11.796741],[79.6908476,11.8088287],[79.6787598,11.8137963],[79.6812436,11.796741]],[[79.7039515,11.812439],[79.700143,11.8241956],[79.6938507,11.8245268],[79.7039515,11.812439]],[[79.6968708,11.8620908],[79.6993546,11.8620908],[79.6995202,11.874013],[79.6968708,11.8620908]],[[79.7978373,12.0177576],[79.8037554,12.0257202],[79.7873462,12.0280067],[79.7978373,12.0177576]]],[[[79.2044896,9.2747645],[79.3212167,9.3245379],[79.3349032,9.3112791],[79.315277,9.2839973],[79.3215456,9.2673235],[79.4493909,9.1502828],[79.3245721,9.2336043],[79.2573559,9.2581612],[79.2171496,9.2519189],[79.220717,9.2673828],[79.2044896,9.2747645]]]]}},{"type":"Feature","properties":{"NAME_1":"Telangana"},"geometry":{"type":"Polygon","coordinates":[[[77.236585,16.4699909],[77.2446373,16.4776637],[77.2940933,16.4768586],[77.2980482,16.496531],[77.3243721,16.4866728],[77.3694264,16.4881829],[77.3773446,16.5141141],[77.4173902,16.5208487],[77.4179274,16.5486625],[77.403544,16.5508777],[77.3922218,16.569654],[77.4231961,16.5685087],[77.4393807,16.5872044],[77.461132,16.5849346],[77.4672468,16.5991509],[77.4680247,16.6090009],[77.4522028,16.6155968],[77.4724645,16.6520639],[77.4634,16.654481],[77.4432929,16.63831],[77.4176565,16.6589706],[77.4184263,16.6686017],[77.4422235,16.6693911],[77.446986,16.6793145],[77.4638466,16.6765979],[77.468687,16.6843811],[77.4733268,16.716152],[77.4457207,16.7222576],[77.4386269,16.7113432],[77.425547,16.7225161],[77.4464448,16.7681797],[77.4381988,16.789988],[77.4687291,16.7811335],[77.4791435,16.8009082],[77.465233,16.8052015],[77.457055,16.8296598],[77.4638764,16.851407],[77.4529551,16.9145927],[77.4690936,16.9191876],[77.4651315,16.9569965],[77.4821264,16.9731045],[77.4794903,16.995695],[77.5031982,17.0137339],[77.4971803,17.0426756],[77.4887106,17.0469886],[77.4799702,17.0782259],[77.4641128,17.0917981],[77.4620499,17.1104337],[77.4425761,17.1200624],[77.4191105,17.1198718],[77.4051308,17.1349109],[77.3782198,17.1401149],[77.3797691,17.152083],[77.3660536,17.1547739],[77.3617869,17.1644055],[77.3716087,17.1966093],[77.3939296,17.1937826],[77.4019289,17.2104587],[77.3788022,17.2220507],[77.4080273,17.2412771],[77.4197166,17.2375301],[77.4261073,17.2564168],[77.4580297,17.2800071],[77.4360704,17.2918573],[77.4557939,17.3311064],[77.4528803,17.3739303],[77.4787731,17.3697306],[77.4744682,17.36278],[77.4833659,17.3549902],[77.5039435,17.3563018],[77.5284624,17.3701379],[77.5327658,17.3776034],[77.5242935,17.3885676],[77.5375491,17.4073073],[77.5137743,17.4119209],[77.5133123,17.4294861],[77.5375754,17.4427944],[77.5760829,17.430537],[77.5765591,17.4568535],[77.6139006,17.4467358],[77.6131262,17.4719836],[77.6385235,17.4733319],[77.6556826,17.5049682],[77.6536651,17.4830739],[77.6844212,17.4745359],[77.6916687,17.4968306],[77.6879902,17.5115352],[77.6810747,17.5043099],[77.6620016,17.5229039],[77.6395183,17.5240971],[77.6360181,17.5333035],[77.6193413,17.5290612],[77.6137763,17.5396642],[77.6227276,17.5481377],[77.6011801,17.5413053],[77.5941773,17.5644629],[77.5620962,17.5604437],[77.5620985,17.5516131],[77.5491474,17.5507532],[77.5417056,17.5717356],[77.5310478,17.5740337],[77.5064311,17.5413006],[77.5004583,17.5426915],[77.4972401,17.5679152],[77.4798522,17.5685873],[77.4710304,17.5863047],[77.4594188,17.5796057],[77.4445196,17.5835026],[77.4447668,17.6091117],[77.4564759,17.6344818],[77.4485034,17.6529973],[77.4529389,17.6948351],[77.5703231,17.7418117],[77.5688694,17.7664301],[77.5552641,17.7635861],[77.5382663,17.7797403],[77.5059815,17.7863871],[77.5141869,17.8040228],[77.5287883,17.8130782],[77.5288974,17.83005],[77.5469995,17.8284299],[77.5536177,17.8201121],[77.5763705,17.8754353],[77.5983522,17.8732783],[77.5862317,17.9082835],[77.6189265,17.9036895],[77.6182727,17.9383448],[77.6330361,17.9494653],[77.6245389,17.9594949],[77.6334601,17.9679494],[77.6369616,17.9523069],[77.6495824,17.9500428],[77.6559078,17.9684465],[77.6483705,17.9793685],[77.6496742,17.9979809],[77.6274537,17.9969847],[77.6075068,18.0089148],[77.6048936,18.0201473],[77.5884795,18.012386],[77.5797935,18.0322281],[77.5539978,18.0356658],[77.5475089,18.0556508],[77.5486497,18.0648886],[77.59699,18.0833024],[77.6014625,18.0932764],[77.5972343,18.1565527],[77.583434,18.1610502],[77.5630683,18.1954571],[77.5863998,18.217605],[77.5728047,18.2429819],[77.6034266,18.2793438],[77.5724422,18.2947961],[77.560895,18.2842721],[77.549798,18.2918848],[77.5574082,18.3048434],[77.5736283,18.3030122],[77.5735525,18.3125865],[77.5611475,18.33089],[77.5441449,18.3381801],[77.5326605,18.3342643],[77.5213133,18.3475703],[77.5260636,18.373033],[77.5518212,18.3923414],[77.5565648,18.419208],[77.528617,18.4283026],[77.5270384,18.4405989],[77.5423092,18.4445247],[77.5640573,18.4365173],[77.5951414,18.444227],[77.5979494,18.4493526],[77.5487116,18.4666312],[77.572507,18.469052],[77.5765741,18.4868034],[77.6032385,18.4764113],[77.603686,18.4961779],[77.5853179,18.5044383],[77.5998008,18.5196301],[77.5992798,18.5279728],[77.5882403,18.526446],[77.5964893,18.5493057],[77.6273673,18.5522974],[77.6340985,18.5425808],[77.6476656,18.5554737],[77.655304,18.5315771],[77.6895951,18.5475096],[77.7074507,18.5653034],[77.7207567,18.5535273],[77.7383119,18.5568688],[77.7493429,18.5904264],[77.7286147,18.6653556],[77.7473297,18.6839721],[77.7518749,18.7011411],[77.7671904,18.7060037],[77.7721739,18.6889357],[77.7867865,18.6830003],[77.8420615,18.806929],[77.9042629,18.827275],[77.9336429,18.8237466],[77.9479762,18.8304342],[77.9472703,18.8445328],[77.9344391,18.8465546],[77.9290644,18.8602751],[77.9028743,18.8674389],[77.9033101,18.8823948],[77.8910096,18.8833462],[77.8851448,18.9058094],[77.8426951,18.9102158],[77.8579172,18.949541],[77.841985,18.9510459],[77.8317014,18.9427327],[77.8158766,18.9482767],[77.8201456,18.9798702],[77.7907995,18.9838434],[77.7867352,18.9737693],[77.7708791,18.9802014],[77.7697198,19.0221186],[77.7606043,19.0325884],[77.765561,19.0634024],[77.8001126,19.0509143],[77.7962601,19.0719103],[77.80536,19.101748],[77.8174562,19.1050649],[77.8311935,19.0865836],[77.8498256,19.0891203],[77.8519387,19.1168166],[77.8417448,19.1182168],[77.8341389,19.1344041],[77.8522649,19.1543378],[77.8601961,19.1801521],[77.8445223,19.1911044],[77.8667722,19.2267638],[77.8699521,19.2492157],[77.8851562,19.2622733],[77.9029517,19.256702],[77.9075109,19.2685443],[77.9042068,19.2787989],[77.8664608,19.2841609],[77.8634021,19.3044391],[77.9498516,19.3385078],[77.9781339,19.3207823],[77.987249,19.3061777],[78.0134469,19.2944172],[78.0150076,19.2789895],[78.0420878,19.2706012],[78.0355011,19.2502543],[78.0511449,19.2394995],[78.079069,19.2551897],[78.0886592,19.2400111],[78.1136237,19.2482778],[78.1397902,19.2301065],[78.1752733,19.2378869],[78.1822256,19.2479381],[78.1774194,19.2791164],[78.1933203,19.3186795],[78.1904699,19.3289608],[78.1743589,19.330571],[78.1587499,19.3602451],[78.1687349,19.3588975],[78.1942069,19.4369117],[78.242263,19.4232154],[78.266011,19.4322875],[78.2599625,19.4518648],[78.2749633,19.4558507],[78.2969278,19.4467756],[78.3080173,19.4555254],[78.3111359,19.4744408],[78.2909817,19.5247787],[78.2924716,19.5428193],[78.2832241,19.5428193],[78.2743567,19.5558671],[78.2748634,19.5633411],[78.2937384,19.5600475],[78.3029859,19.5699284],[78.30657,19.6064827],[78.2952957,19.6197167],[78.2904925,19.6452342],[78.2635283,19.6658118],[78.2783911,19.6924952],[78.3123137,19.6916772],[78.3175135,19.7055426],[78.3405926,19.7102063],[78.3407924,19.7364767],[78.3513739,19.73875],[78.3652486,19.7792434],[78.3577752,19.8052995],[78.3340791,19.8146971],[78.3371277,19.8384388],[78.2861078,19.8474501],[78.3059396,19.9137987],[78.3161635,19.9166359],[78.333253,19.9102253],[78.3245192,19.8946367],[78.3336148,19.884818],[78.3803641,19.880381],[78.3865285,19.8461546],[78.4224164,19.81838],[78.4714258,19.8176735],[78.4887286,19.7935454],[78.5051068,19.7947543],[78.5150599,19.8181176],[78.5517096,19.8239212],[78.5731029,19.8162705],[78.6009832,19.8180913],[78.6984157,19.7882484],[78.7180173,19.7667036],[78.7408376,19.7829281],[78.756727,19.7725191],[78.7833881,19.7792431],[78.8011336,19.7566672],[78.8408422,19.7619107],[78.8604176,19.6895014],[78.8523552,19.6582508],[78.8865069,19.6547154],[78.8856273,19.662423],[78.9049139,19.6699359],[78.9554594,19.6561554],[78.9618278,19.635842],[78.9504279,19.6085214],[78.9538727,19.5961857],[78.9677355,19.5919132],[78.9728391,19.581429],[78.9465431,19.5626416],[78.9368967,19.5640792],[78.9395482,19.5523695],[78.9737111,19.550544],[78.980622,19.5616274],[78.997573,19.5423293],[79.045036,19.5492401],[79.0665508,19.5369832],[79.0952372,19.533593],[79.159912,19.4893898],[79.1793995,19.4623731],[79.2229769,19.4683584],[79.204021,19.4942546],[79.2407897,19.5373447],[79.2382456,19.5560384],[79.2532038,19.5931285],[79.2390401,19.6063877],[79.2440501,19.6171628],[79.2726509,19.5992247],[79.298402,19.5961987],[79.3118047,19.5662602],[79.3300705,19.5801729],[79.3657221,19.5769573],[79.3728392,19.5613419],[79.3857074,19.5588265],[79.4029438,19.5375751],[79.4208047,19.5302359],[79.4224214,19.5383332],[79.4334423,19.5376067],[79.4718569,19.5015338],[79.5183887,19.5202154],[79.5184513,19.5437628],[79.5397466,19.5555908],[79.5527318,19.5248229],[79.5957132,19.5080353],[79.6130355,19.5584424],[79.6291818,19.5743703],[79.7088781,19.5844655],[79.7394128,19.6072435],[79.7533434,19.6077779],[79.8151317,19.5752891],[79.8646327,19.5102543],[79.9153925,19.4953837],[79.947701,19.467501],[79.948784,19.4498444],[79.972849,19.415081],[79.9796506,19.3905344],[79.9606971,19.3327702],[79.9665982,19.303598],[79.9504012,19.2910753],[79.9283639,19.2477688],[79.9216185,19.2160422],[79.9431323,19.1839419],[79.9444005,19.1652651],[79.9196056,19.1457305],[79.8763209,19.128592],[79.8569948,19.0950791],[79.8740978,19.0415167],[79.8930376,19.0386569],[79.9273869,19.0533325],[79.941395,19.0335292],[79.9380173,18.9917798],[79.953393,18.968383],[79.9617882,18.8637907],[79.9452239,18.845018],[79.9120539,18.8306364],[79.9218832,18.8087077],[79.9660053,18.7719593],[79.9963055,18.7675457],[79.9993002,18.7755717],[80.0213266,18.7685108],[80.0277195,18.7538319],[80.0412936,18.7520701],[80.0536719,18.7238307],[80.0883477,18.706745],[80.109699,18.6842225],[80.1857282,18.7020857],[80.2468436,18.7014936],[80.2728751,18.7237235],[80.306563,18.6834475],[80.3185596,18.6438158],[80.3487091,18.593937],[80.3733063,18.6089553],[80.3880615,18.5979005],[80.393424,18.6069428],[80.454467,18.6305713],[80.4877083,18.6328838],[80.5132239,18.6220672],[80.5332973,18.5896273],[80.6016599,18.5541959],[80.616955,18.5291853],[80.6375505,18.5242087],[80.6373127,18.50429],[80.6562414,18.4768071],[80.6854888,18.4599161],[80.68879,18.447695],[80.7029685,18.445651],[80.6973697,18.4243099],[80.7169977,18.4118509],[80.7340504,18.4156413],[80.7309468,18.4010811],[80.7189342,18.3923489],[80.7297404,18.3796041],[80.7469523,18.3142119],[80.7585952,18.3027712],[80.7593008,18.2902128],[80.7730029,18.2857464],[80.7784678,18.267877],[80.7895622,18.2644423],[80.7902692,18.2436589],[80.7713973,18.2420112],[80.7352654,18.2224292],[80.738003,18.1746655],[80.772803,18.1673768],[80.8145133,18.1768404],[80.8228528,18.1903193],[80.8218804,18.2381952],[80.8333079,18.240754],[80.8684651,18.2302271],[80.8711698,18.206692],[80.8524757,18.2013281],[80.860562,18.1491165],[80.8701566,18.1363252],[80.9156113,18.1433888],[80.9535823,18.1740002],[80.9759958,18.1759637],[80.9766284,18.1521163],[80.954324,18.1260328],[80.9475943,18.0821291],[80.9686122,18.0435215],[80.9629738,18.0374102],[80.9782073,18.0045554],[80.997737,17.9193492],[80.9959439,17.8568945],[81.0080074,17.7996052],[81.0448545,17.7822157],[81.0771943,17.7886557],[81.0857407,17.79807],[81.0962333,17.7741313],[81.1045074,17.7720132],[81.05846,17.733287],[81.0404642,17.7476919],[80.9914634,17.7501831],[80.9729629,17.7794715],[80.9548938,17.773934],[80.946306,17.7603013],[80.9191005,17.7567762],[80.9173132,17.748223],[80.9000077,17.7520534],[80.9027414,17.7419669],[80.8914806,17.7412723],[80.8937813,17.7029129],[80.8854945,17.6837168],[80.9062489,17.6802914],[80.9027824,17.6586931],[80.91092,17.6545188],[80.8889222,17.6321617],[80.8569288,17.6304234],[80.8504057,17.6197688],[80.8556199,17.6030288],[80.881176,17.5970258],[80.9674358,17.5988257],[80.9987639,17.5645836],[81.0198354,17.520104],[81.0801422,17.5150497],[81.0986924,17.5043269],[81.1265874,17.5267746],[81.1385822,17.5161547],[81.1423373,17.4884563],[81.1596965,17.4842505],[81.1482596,17.4632918],[81.1761224,17.4640082],[81.1724746,17.4490041],[81.1906922,17.4366601],[81.2025475,17.4340602],[81.2052727,17.4495466],[81.2686479,17.4183473],[81.3111234,17.4094308],[81.3208544,17.3897432],[81.3226246,17.3745897],[81.3053298,17.3463987],[81.2751388,17.3177015],[81.2466001,17.3256085],[81.2361717,17.3200368],[81.189512,17.3235806],[81.1766803,17.2876783],[81.1864523,17.2493396],[81.1706681,17.2313577],[81.079457,17.2154636],[81.0550386,17.2248267],[81.0495329,17.2074696],[81.0311544,17.1906611],[80.9942452,17.1917941],[80.9677771,17.1988472],[80.9409599,17.2196458],[80.9189191,17.2200354],[80.9239304,17.1578289],[80.8794594,17.1608531],[80.8783221,17.1352336],[80.8678937,17.1235965],[80.8768524,17.1051715],[80.8675158,17.0786495],[80.8770341,17.070514],[80.8450627,17.0401677],[80.8290338,17.0528972],[80.7392205,17.0788166],[80.6993027,17.0821135],[80.6737876,17.0666925],[80.6540251,17.0694002],[80.6577801,17.0906704],[80.6705689,17.1011713],[80.6419444,17.1160192],[80.6455278,17.1235452],[80.6187916,17.1282617],[80.5799639,17.1533901],[80.5628943,17.1332651],[80.527854,17.1192491],[80.5139172,17.1222636],[80.5042291,17.0937777],[80.510087,17.0872965],[80.5055165,17.0689079],[80.4907322,17.0513484],[80.4713452,17.0506817],[80.464822,17.0302891],[80.4385471,17.0378186],[80.4170787,17.0736873],[80.4190694,17.0921825],[80.4093861,17.0917164],[80.3857043,17.0667892],[80.3984856,17.0524049],[80.3957713,17.0358491],[80.4075193,17.0257959],[80.4070258,17.0158242],[80.3877675,17.0091762],[80.3633916,16.9760657],[80.4498982,16.9550083],[80.4936719,16.9279236],[80.4991007,16.9561987],[80.5261266,16.9479578],[80.5353856,16.9613709],[80.6024663,16.918919],[80.5870986,16.9034424],[80.5957246,16.8971907],[80.5955113,16.8847329],[80.5682587,16.8697076],[80.5629051,16.8335741],[80.6129229,16.7935511],[80.5973124,16.7923083],[80.5706191,16.7678712],[80.5056023,16.7781642],[80.4646182,16.7953178],[80.4643178,16.819813],[80.4286337,16.838267],[80.4274964,16.8499629],[80.3842056,16.865344],[80.3785515,16.8518214],[80.4079807,16.8488744],[80.40429,16.8323829],[80.381062,16.8171941],[80.3736913,16.8283676],[80.3797531,16.8407726],[80.3732729,16.8402899],[80.3739381,16.8525812],[80.3405714,16.8596969],[80.3440261,16.874492],[80.3218133,16.8788132],[80.3239632,16.9067581],[80.3117034,16.9168834],[80.3166622,16.9486865],[80.3050375,16.953941],[80.3066039,16.974034],[80.2904785,16.9811245],[80.2922702,16.9982392],[80.2824855,17.007945],[80.2646863,16.997562],[80.2404499,17.0024253],[80.2260733,17.0155575],[80.223037,17.0082733],[80.2101087,17.0112794],[80.201869,17.0178453],[80.2039826,17.0384546],[80.1965153,17.0440964],[80.1872671,17.0199484],[80.170235,17.0165844],[80.1678207,17.0055681],[80.1533961,17.0069704],[80.1403069,16.990349],[80.0956947,16.9906352],[80.0912702,16.9685993],[80.0547938,16.9713277],[80.0399923,16.9191477],[80.0172901,16.9151753],[79.9989867,16.8653954],[80.0170541,16.8544911],[80.0466656,16.8535464],[80.0485325,16.8330298],[80.0731101,16.8173975],[80.0694334,16.796507],[80.0542883,16.7666506],[80.0526979,16.7415733],[80.0301389,16.7143971],[79.9976934,16.7021807],[79.9628317,16.6431291],[79.9334489,16.6314366],[79.908454,16.6347634],[79.8921483,16.6527501],[79.8783213,16.6969711],[79.8504113,16.705965],[79.8165966,16.6922672],[79.7922149,16.7258072],[79.7760986,16.7315085],[79.7432293,16.7188268],[79.7243002,16.6916908],[79.6805736,16.6943961],[79.6612852,16.6864632],[79.6350963,16.6610339],[79.5984295,16.673424],[79.5750335,16.6496949],[79.5408146,16.6317741],[79.5031302,16.6365771],[79.4842026,16.6235665],[79.4477774,16.6201408],[79.433283,16.5913438],[79.4175015,16.5800395],[79.3405051,16.5830025],[79.2893145,16.561822],[79.2587169,16.5672367],[79.2480364,16.5346543],[79.2239982,16.5189688],[79.2147126,16.4877968],[79.2335131,16.4597811],[79.2116016,16.4478518],[79.2107084,16.356873],[79.2342633,16.3349961],[79.2301961,16.2810605],[79.2150847,16.2263014],[79.1595005,16.2100902],[79.122238,16.2327176],[79.0992728,16.223948],[79.0840411,16.2309684],[79.0714415,16.2274404],[79.0522514,16.2394344],[79.011104,16.2416867],[78.9880256,16.2124676],[78.9308645,16.1996449],[78.9051946,16.1829513],[78.9245939,16.1357198],[78.9215326,16.1032103],[78.8892104,16.0850707],[78.8727465,16.1441848],[78.8344268,16.1457687],[78.8422723,16.0943537],[78.8365488,16.0709334],[78.790664,16.0246586],[78.7404182,16.009857],[78.6817851,16.0345197],[78.6504148,16.0791105],[78.6226609,16.0882978],[78.6022519,16.0845923],[78.5877486,16.0642519],[78.5533855,16.0431209],[78.4751379,16.0688363],[78.4089088,16.0752591],[78.3642447,16.046463],[78.3485055,16.0478962],[78.3279705,16.0378533],[78.3147955,16.012816],[78.2625246,16.0268819],[78.2515093,15.9785209],[78.2521605,15.9364473],[78.1851039,15.9115199],[78.1801297,15.8999493],[78.190198,15.8926429],[78.1763145,15.8763957],[78.1764582,15.8582973],[78.1359029,15.8551265],[78.1302488,15.8508744],[78.1338858,15.8366517],[78.0837393,15.8413067],[78.0715299,15.8506783],[78.0714333,15.862227],[78.0469072,15.875096],[78.0451476,15.9044739],[78.0320048,15.9077034],[78.0088842,15.861969],[77.9754746,15.8836818],[77.9375481,15.8837231],[77.8895497,15.9067314],[77.8776038,15.9053826],[77.8571233,15.8836002],[77.8377981,15.8853877],[77.8039849,15.8745078],[77.7248919,15.8960748],[77.6921475,15.8836095],[77.65818,15.8860242],[77.6126024,15.9186295],[77.5933356,15.9129726],[77.5133402,15.9280671],[77.519203,15.9660299],[77.5094647,15.9803842],[77.5140765,16.0087225],[77.5054588,16.011296],[77.4942492,16.0366513],[77.5067714,16.077969],[77.4923949,16.0857707],[77.5006601,16.1065713],[77.5139191,16.1077628],[77.5022844,16.1194037],[77.4896441,16.1194905],[77.4862978,16.1646846],[77.501342,16.2230927],[77.5157501,16.2254048],[77.4919713,16.2294863],[77.4900118,16.2552837],[77.5143579,16.2779507],[77.5373517,16.2669983],[77.5451552,16.2923818],[77.5681765,16.3045801],[77.582302,16.2908744],[77.5976293,16.2932653],[77.5891895,16.3441127],[77.5575716,16.344538],[77.5236397,16.3746203],[77.4910668,16.3849805],[77.4399519,16.3801798],[77.4189847,16.3663029],[77.3774351,16.3864653],[77.3482112,16.3846153],[77.2874404,16.4090716],[77.263451,16.4494074],[77.236585,16.4699909]]]}}]}